[{"OBJECT_NAME":"SEEDS II (CO-66)","OBJECT_ID":"2008-021J","EPOCH":"2026-03-07T11:59:35.865888","MEAN_MOTION":15.28968125,"ECCENTRICITY":0.00017632,"INCLINATION":97.7523,"RA_OF_ASC_NODE":59.8387,"ARG_OF_PERICENTER":7.0409,"MEAN_ANOMALY":353.0854,"EPHEMERIS_TYPE":0,"CLASSIFICATION_TYPE":"U","NORAD_CAT_ID":32791,"ELEMENT_SET_NO":999,"REV_AT_EPOCH":97173,"BSTAR":0.001079585,"MEAN_MOTION_DOT":0.00030386,"MEAN_MOTION_DDOT":0},{"OBJECT_NAME":"YUBILEINY (RS30)","OBJECT_ID":"2008-025A","EPOCH":"2026-03-07T12:50:18.256128","MEAN_MOTION":12.43175979,"ECCENTRICITY":0.00194592,"INCLINATION":82.4992,"RA_OF_ASC_NODE":58.663,"ARG_OF_PERICENTER":169.9134,"MEAN_ANOMALY":190.234,"EPHEMERIS_TYPE":0,"CLASSIFICATION_TYPE":"U","NORAD_CAT_ID":32953,"ELEMENT_SET_NO":999,"REV_AT_EPOCH":80706,"BSTAR":0.00015329526,"MEAN_MOTION_DOT":3.1e-7,"MEAN_MOTION_DDOT":0},{"OBJECT_NAME":"FENGYUN 3A","OBJECT_ID":"2008-026A","EPOCH":"2026-03-07T09:49:17.699232","MEAN_MOTION":14.19545602,"ECCENTRICITY":0.00097321,"INCLINATION":98.6796,"RA_OF_ASC_NODE":9.1974,"ARG_OF_PERICENTER":64.1705,"MEAN_ANOMALY":296.0474,"EPHEMERIS_TYPE":0,"CLASSIFICATION_TYPE":"U","NORAD_CAT_ID":32958,"ELEMENT_SET_NO":999,"REV_AT_EPOCH":92096,"BSTAR":9.8077001e-5,"MEAN_MOTION_DOT":1.64e-6,"MEAN_MOTION_DDOT":0},{"OBJECT_NAME":"HUANJING 1A (HJ-1A)","OBJECT_ID":"2008-041A","EPOCH":"2026-03-07T14:41:21.018912","MEAN_MOTION":14.83708927,"ECCENTRICITY":0.00206024,"INCLINATION":97.6635,"RA_OF_ASC_NODE":56.4311,"ARG_OF_PERICENTER":109.9571,"MEAN_ANOMALY":250.3865,"EPHEMERIS_TYPE":0,"CLASSIFICATION_TYPE":"U","NORAD_CAT_ID":33320,"ELEMENT_SET_NO":999,"REV_AT_EPOCH":94334,"BSTAR":3.5570556e-5,"MEAN_MOTION_DOT":2.44e-6,"MEAN_MOTION_DDOT":0},{"OBJECT_NAME":"HUANJING 1B (HJ-1B)","OBJECT_ID":"2008-041B","EPOCH":"2026-03-07T14:30:26.847360","MEAN_MOTION":14.83096336,"ECCENTRICITY":0.00369886,"INCLINATION":97.6479,"RA_OF_ASC_NODE":59.8922,"ARG_OF_PERICENTER":154.5246,"MEAN_ANOMALY":205.7802,"EPHEMERIS_TYPE":0,"CLASSIFICATION_TYPE":"U","NORAD_CAT_ID":33321,"ELEMENT_SET_NO":999,"REV_AT_EPOCH":94335,"BSTAR":0.00020416407,"MEAN_MOTION_DOT":1.631e-5,"MEAN_MOTION_DDOT":0},{"OBJECT_NAME":"SHIJIAN-6 03A (SJ-6 03A)","OBJECT_ID":"2008-053A","EPOCH":"2026-03-07T15:24:44.697600","MEAN_MOTION":15.16023943,"ECCENTRICITY":0.00117907,"INCLINATION":97.8532,"RA_OF_ASC_NODE":96.4533,"ARG_OF_PERICENTER":10.3431,"MEAN_ANOMALY":349.8041,"EPHEMERIS_TYPE":0,"CLASSIFICATION_TYPE":"U","NORAD_CAT_ID":33408,"ELEMENT_SET_NO":999,"REV_AT_EPOCH":94757,"BSTAR":0.00042350106,"MEAN_MOTION_DOT":8.084e-5,"MEAN_MOTION_DDOT":0},{"OBJECT_NAME":"SHIJIAN-6 03B (SJ-6 03B)","OBJECT_ID":"2008-053B","EPOCH":"2026-03-07T15:34:34.057920","MEAN_MOTION":15.03856483,"ECCENTRICITY":0.00203691,"INCLINATION":97.8665,"RA_OF_ASC_NODE":84.8436,"ARG_OF_PERICENTER":27.8132,"MEAN_ANOMALY":332.4177,"EPHEMERIS_TYPE":0,"CLASSIFICATION_TYPE":"U","NORAD_CAT_ID":33409,"ELEMENT_SET_NO":999,"REV_AT_EPOCH":94748,"BSTAR":0.00035450588,"MEAN_MOTION_DOT":4.837e-5,"MEAN_MOTION_DDOT":0},{"OBJECT_NAME":"CHUANGXIN 1-02 (CX-1-02)","OBJECT_ID":"2008-056B","EPOCH":"2026-03-07T15:23:26.632608","MEAN_MOTION":14.30129823,"ECCENTRICITY":0.00154408,"INCLINATION":98.6249,"RA_OF_ASC_NODE":93.8708,"ARG_OF_PERICENTER":79.4835,"MEAN_ANOMALY":280.8086,"EPHEMERIS_TYPE":0,"CLASSIFICATION_TYPE":"U","NORAD_CAT_ID":33434,"ELEMENT_SET_NO":999,"REV_AT_EPOCH":90410,"BSTAR":1.9961863e-5,"MEAN_MOTION_DOT":8.0e-8,"MEAN_MOTION_DDOT":0},{"OBJECT_NAME":"STARS (KUKAI)","OBJECT_ID":"2009-002G","EPOCH":"2026-03-07T07:24:25.955136","MEAN_MOTION":14.94906453,"ECCENTRICITY":0.0009473,"INCLINATION":98.1463,"RA_OF_ASC_NODE":9.5812,"ARG_OF_PERICENTER":138.0714,"MEAN_ANOMALY":222.1233,"EPHEMERIS_TYPE":0,"CLASSIFICATION_TYPE":"U","NORAD_CAT_ID":33498,"ELEMENT_SET_NO":999,"REV_AT_EPOCH":92325,"BSTAR":0.00066868,"MEAN_MOTION_DOT":7.242e-5,"MEAN_MOTION_DDOT":0},{"OBJECT_NAME":"KKS-1 (KISEKI)","OBJECT_ID":"2009-002H","EPOCH":"2026-03-07T12:11:26.833344","MEAN_MOTION":14.82819953,"ECCENTRICITY":0.00064238,"INCLINATION":98.1186,"RA_OF_ASC_NODE":347.3703,"ARG_OF_PERICENTER":259.4196,"MEAN_ANOMALY":100.6294,"EPHEMERIS_TYPE":0,"CLASSIFICATION_TYPE":"U","NORAD_CAT_ID":33499,"ELEMENT_SET_NO":999,"REV_AT_EPOCH":92112,"BSTAR":0.00031440561,"MEAN_MOTION_DOT":2.489e-5,"MEAN_MOTION_DDOT":0},{"OBJECT_NAME":"NOAA 19","OBJECT_ID":"2009-005A","EPOCH":"2026-03-07T14:40:50.674368","MEAN_MOTION":14.13456312,"ECCENTRICITY":0.00129692,"INCLINATION":98.961,"RA_OF_ASC_NODE":137.3793,"ARG_OF_PERICENTER":320.9566,"MEAN_ANOMALY":39.0669,"EPHEMERIS_TYPE":0,"CLASSIFICATION_TYPE":"U","NORAD_CAT_ID":33591,"ELEMENT_SET_NO":999,"REV_AT_EPOCH":88013,"BSTAR":6.3599063e-5,"MEAN_MOTION_DOT":7.5e-7,"MEAN_MOTION_DDOT":0},{"OBJECT_NAME":"UK-DMC 2","OBJECT_ID":"2009-041C","EPOCH":"2026-03-07T14:26:56.496192","MEAN_MOTION":14.75845899,"ECCENTRICITY":0.00011048,"INCLINATION":97.8653,"RA_OF_ASC_NODE":204.1617,"ARG_OF_PERICENTER":91.3474,"MEAN_ANOMALY":268.7863,"EPHEMERIS_TYPE":0,"CLASSIFICATION_TYPE":"U","NORAD_CAT_ID":35683,"ELEMENT_SET_NO":999,"REV_AT_EPOCH":89158,"BSTAR":0.00021147059,"MEAN_MOTION_DOT":1.401e-5,"MEAN_MOTION_DDOT":0},{"OBJECT_NAME":"METEOR-M 1","OBJECT_ID":"2009-049A","EPOCH":"2026-03-07T11:34:35.358816","MEAN_MOTION":14.2313009,"ECCENTRICITY":0.0001305,"INCLINATION":98.7272,"RA_OF_ASC_NODE":29.7524,"ARG_OF_PERICENTER":225.203,"MEAN_ANOMALY":134.9043,"EPHEMERIS_TYPE":0,"CLASSIFICATION_TYPE":"U","NORAD_CAT_ID":35865,"ELEMENT_SET_NO":999,"REV_AT_EPOCH":85478,"BSTAR":0.00010307705,"MEAN_MOTION_DOT":1.89e-6,"MEAN_MOTION_DDOT":0},{"OBJECT_NAME":"OCEANSAT-2","OBJECT_ID":"2009-051A","EPOCH":"2026-03-07T14:49:09.079680","MEAN_MOTION":13.9963699,"ECCENTRICITY":0.00171389,"INCLINATION":98.2276,"RA_OF_ASC_NODE":63.6379,"ARG_OF_PERICENTER":157.5808,"MEAN_ANOMALY":202.6111,"EPHEMERIS_TYPE":0,"CLASSIFICATION_TYPE":"U","NORAD_CAT_ID":35931,"ELEMENT_SET_NO":999,"REV_AT_EPOCH":86512,"BSTAR":0.00014119946,"MEAN_MOTION_DOT":1.69e-6,"MEAN_MOTION_DDOT":0},{"OBJECT_NAME":"SWISSCUBE","OBJECT_ID":"2009-051B","EPOCH":"2026-03-07T15:07:08.083488","MEAN_MOTION":14.62253623,"ECCENTRICITY":0.00069347,"INCLINATION":98.4098,"RA_OF_ASC_NODE":332.7362,"ARG_OF_PERICENTER":158.7372,"MEAN_ANOMALY":201.4118,"EPHEMERIS_TYPE":0,"CLASSIFICATION_TYPE":"U","NORAD_CAT_ID":35932,"ELEMENT_SET_NO":999,"REV_AT_EPOCH":87431,"BSTAR":0.00036923019,"MEAN_MOTION_DOT":1.813e-5,"MEAN_MOTION_DDOT":0},{"OBJECT_NAME":"BEESAT-1","OBJECT_ID":"2009-051C","EPOCH":"2026-03-07T07:31:54.204384","MEAN_MOTION":14.61527288,"ECCENTRICITY":0.000515,"INCLINATION":98.403,"RA_OF_ASC_NODE":332.2595,"ARG_OF_PERICENTER":170.589,"MEAN_ANOMALY":189.5407,"EPHEMERIS_TYPE":0,"CLASSIFICATION_TYPE":"U","NORAD_CAT_ID":35933,"ELEMENT_SET_NO":999,"REV_AT_EPOCH":87430,"BSTAR":0.00031893,"MEAN_MOTION_DOT":1.534e-5,"MEAN_MOTION_DDOT":0}]
